HAWK-6B                 
1 55324U 23011A   26068.41062443  .00007596  00000+0  33476-3 0  9994
2 55324  40.5121 213.6048 0001920  18.2889 341.7989 15.21905453172631
ELARASAT MMS-1          
1 64539U 25135M   26068.85958675  .00011239  00000+0  49586-3 0  9998
2 64539  97.4601 185.0311 0004021 148.9941 211.1534 15.21931569 39762
